{
    "links": {
        "self": "http://www.neowsapp.com/rest/v1/neo/3755542?api_key=iIulBulltgU6a56xZRHN4H3l9WmuAYTsLGpBGhQ2"
    },
    "id": "3755542",
    "neo_reference_id": "3755542",
    "name": "(2016 NJ39)",
    "designation": "2016 NJ39",
    "nasa_jpl_url": "http://ssd.jpl.nasa.gov/sbdb.cgi?sstr=3755542",
    "absolute_magnitude_h": 25.1,
    "estimated_diameter": {
        "kilometers": {
            "estimated_diameter_min": 0.0253837029,
            "estimated_diameter_max": 0.0567596853
        },
        "meters": {
            "estimated_diameter_min": 25.3837029364,
            "estimated_diameter_max": 56.7596852866
        },
        "miles": {
            "estimated_diameter_min": 0.0157726969,
            "estimated_diameter_max": 0.0352688224
        },
        "feet": {
            "estimated_diameter_min": 83.279867942,
            "estimated_diameter_max": 186.2194458756
        }
    },
    "is_potentially_hazardous_asteroid": false,
    "close_approach_data": [
        {
            "close_approach_date": "2016-07-22",
            "close_approach_date_full": "2016-Jul-22 14:26",
            "epoch_date_close_approach": 1469197560000,
            "relative_velocity": {
                "kilometers_per_second": "10.3739956034",
                "kilometers_per_hour": "37346.3841721144",
                "miles_per_hour": "23205.5907651674"
            },
            "miss_distance": {
                "astronomical": "0.0296621136",
                "lunar": "11.5385621904",
                "kilometers": "4437389.014258032",
                "miles": "2757265.6773515616"
            },
            "orbiting_body": "Earth"
        }
    ],
    "orbital_data": {
        "orbit_id": "5",
        "orbit_determination_date": "2017-04-06 08:24:56",
        "first_observation_date": "2016-07-15",
        "last_observation_date": "2016-07-22",
        "data_arc_in_days": 7,
        "observations_used": 38,
        "orbit_uncertainty": "8",
        "minimum_orbit_intersection": ".00556358",
        "jupiter_tisserand_invariant": "3.428",
        "epoch_osculation": "2457586.5",
        "eccentricity": ".5637079239139995",
        "semi_major_axis": "2.213832805330254",
        "inclination": ".8122687803004665",
        "ascending_node_longitude": "148.9337941480293",
        "orbital_period": "1203.138584796048",
        "perihelion_distance": ".9658777107448311",
        "perihelion_argument": "187.1865009043337",
        "aphelion_distance": "3.461787899915677",
        "perihelion_time": "2457620.169243000829",
        "mean_anomaly": "349.9255766264423",
        "mean_motion": ".2992174006795949",
        "equinox": "J2000",
        "orbit_class": {
            "orbit_class_type": "APO",
            "orbit_class_description": "Near-Earth asteroid orbits which cross the Earth’s orbit similar to that of 1862 Apollo",
            "orbit_class_range": "a (semi-major axis) > 1.0 AU; q (perihelion) < 1.017 AU"
        }
    },
    "is_sentry_object": false
}